STARLINK-5069           
1 55640U 23021N   25208.91726627  .00000604  00000+0  58438-4 0  9996
2 55640  70.0000  31.1449 0003092 266.3234  93.7571 14.98339671135126
STARLINK-5065           
1 55641U 23021P   25208.87971832 -.00002346  00000+0 -18892-3 0  9998
2 55641  69.9998  31.4149 0003239 271.3060  88.7728 14.98328720135116
STARLINK-5483           
1 55643U 23021R   25208.88806575 -.00000309  00000+0 -18077-4 0  9995
2 55643  70.0001  31.4406 0002589 269.7975  90.2887 14.98330293135117
STARLINK-5502           
1 55644U 23021S   25208.93395987 -.00000236  00000+0 -11976-4 0  9992
2 55644  70.0003  31.2063 0001636 240.0657 120.0340 14.98333915135129
STARLINK-5510           
1 55647U 23021V   25208.90056451 -.00000249  00000+0 -13075-4 0  9998
2 55647  70.0001  31.0863 0002925 267.2231  92.8593 14.98330088135121
STARLINK-5501           
1 55648U 23021W   25208.92980413  .00003163  00000+0  27280-3 0  9993
2 55648  70.0001  31.1916 0002611 269.3205  90.7655 14.98321141135124
STARLINK-5469           
1 55649U 23021X   25208.90893980 -.00001768  00000+0 -14043-3 0  9998
2 55649  70.0001  31.1166 0002670 272.8915  87.1938 14.98319687135120
STARLINK-5494           
1 55650U 23021Y   25208.92143628 -.00000187  00000+0 -78583-5 0  9994
2 55650  70.0001  31.1611 0002048 271.1274  88.9651 14.98328670135129
STARLINK-5506           
1 55651U 23021Z   25208.87135466  .00002055  00000+0  17990-3 0  9997
2 55651  70.0002  31.3890 0002766 270.6189  89.4653 14.98346752135116
STARLINK-5487           
1 55652U 23021AA  25208.91308569 -.00000064  00000+0  24139-5 0  9993
2 55652  70.0001  31.1312 0002845 267.4419  92.6414 14.98331373135126
STARLINK-5067           
1 55653U 23021AB  25208.89638772 -.00000095  00000+0 -21648-6 0  9991
2 55653  70.0000  31.0752 0002263 269.6789  90.4111 14.98331676135127
STARLINK-5070           
1 55654U 23021AC  25208.88389037  .00000055  00000+0  12410-4 0  9997
2 55654  70.0000  31.4325 0002926 267.6275  92.4549 14.98333260135119
STARLINK-5267           
1 55655U 23021AD  25208.85444948  .00000389  00000+0  40365-4 0  9998
2 55655  70.0006  11.4550 0002977 267.5666  92.5152 14.98330608135599
STARLINK-5326           
1 55656U 23021AE  25208.89221311 -.00000123  00000+0 -25008-5 0  9996
2 55656  69.9999  31.0577 0002963 268.6984  91.3836 14.98329976135126
STARLINK-5328           
1 55657U 23021AF  25208.86279599  .00000394  00000+0  40798-4 0  9995
2 55657  70.0007  11.4843 0003084 268.6122  91.4684 14.98332181135604
STARLINK-5307           
1 55658U 23021AG  25208.90473671 -.00000024  00000+0  57732-5 0  9996
2 55658  70.0000  31.1008 0002748 266.6584  93.4261 14.98331386135122
STARLINK-5477           
1 55659U 23021AH  25208.85862363  .00000125  00000+0  18250-4 0  9993
2 55659  70.0006  11.4709 0003006 268.2317  91.8498 14.98330758135595
