[{"OBJECT_NAME":"STARLINK-5069","OBJECT_ID":"2023-021N","EPOCH":"2025-07-27T22:00:51.805728","MEAN_MOTION":14.98339671,"ECCENTRICITY":0.0003092,"INCLINATION":70,"RA_OF_ASC_NODE":31.1449,"ARG_OF_PERICENTER":266.3234,"MEAN_ANOMALY":93.7571,"EPHEMERIS_TYPE":0,"CLASSIFICATION_TYPE":"U","NORAD_CAT_ID":55640,"ELEMENT_SET_NO":999,"REV_AT_EPOCH":13512,"BSTAR":5.8438e-5,"MEAN_MOTION_DOT":6.04e-6,"MEAN_MOTION_DDOT":0},{"OBJECT_NAME":"STARLINK-5065","OBJECT_ID":"2023-021P","EPOCH":"2025-07-27T21:06:47.662848","MEAN_MOTION":14.9832872,"ECCENTRICITY":0.0003239,"INCLINATION":69.9998,"RA_OF_ASC_NODE":31.4149,"ARG_OF_PERICENTER":271.306,"MEAN_ANOMALY":88.7728,"EPHEMERIS_TYPE":0,"CLASSIFICATION_TYPE":"U","NORAD_CAT_ID":55641,"ELEMENT_SET_NO":999,"REV_AT_EPOCH":13511,"BSTAR":-0.00018892,"MEAN_MOTION_DOT":-2.346e-5,"MEAN_MOTION_DDOT":0},{"OBJECT_NAME":"STARLINK-5483","OBJECT_ID":"2023-021R","EPOCH":"2025-07-27T21:18:48.880800","MEAN_MOTION":14.98330293,"ECCENTRICITY":0.0002589,"INCLINATION":70.0001,"RA_OF_ASC_NODE":31.4406,"ARG_OF_PERICENTER":269.7975,"MEAN_ANOMALY":90.2887,"EPHEMERIS_TYPE":0,"CLASSIFICATION_TYPE":"U","NORAD_CAT_ID":55643,"ELEMENT_SET_NO":999,"REV_AT_EPOCH":13511,"BSTAR":-1.8077e-5,"MEAN_MOTION_DOT":-3.09e-6,"MEAN_MOTION_DDOT":0},{"OBJECT_NAME":"STARLINK-5502","OBJECT_ID":"2023-021S","EPOCH":"2025-07-27T22:24:54.132768","MEAN_MOTION":14.98333915,"ECCENTRICITY":0.0001636,"INCLINATION":70.0003,"RA_OF_ASC_NODE":31.2063,"ARG_OF_PERICENTER":240.0657,"MEAN_ANOMALY":120.034,"EPHEMERIS_TYPE":0,"CLASSIFICATION_TYPE":"U","NORAD_CAT_ID":55644,"ELEMENT_SET_NO":999,"REV_AT_EPOCH":13512,"BSTAR":-1.1976e-5,"MEAN_MOTION_DOT":-2.36e-6,"MEAN_MOTION_DDOT":0},{"OBJECT_NAME":"STARLINK-5510","OBJECT_ID":"2023-021V","EPOCH":"2025-07-27T21:36:48.773664","MEAN_MOTION":14.98330088,"ECCENTRICITY":0.0002925,"INCLINATION":70.0001,"RA_OF_ASC_NODE":31.0863,"ARG_OF_PERICENTER":267.2231,"MEAN_ANOMALY":92.8593,"EPHEMERIS_TYPE":0,"CLASSIFICATION_TYPE":"U","NORAD_CAT_ID":55647,"ELEMENT_SET_NO":999,"REV_AT_EPOCH":13512,"BSTAR":-1.3075e-5,"MEAN_MOTION_DOT":-2.49e-6,"MEAN_MOTION_DDOT":0},{"OBJECT_NAME":"STARLINK-5501","OBJECT_ID":"2023-021W","EPOCH":"2025-07-27T22:18:55.076832","MEAN_MOTION":14.98321141,"ECCENTRICITY":0.0002611,"INCLINATION":70.0001,"RA_OF_ASC_NODE":31.1916,"ARG_OF_PERICENTER":269.3205,"MEAN_ANOMALY":90.7655,"EPHEMERIS_TYPE":0,"CLASSIFICATION_TYPE":"U","NORAD_CAT_ID":55648,"ELEMENT_SET_NO":999,"REV_AT_EPOCH":13512,"BSTAR":0.0002728,"MEAN_MOTION_DOT":3.163e-5,"MEAN_MOTION_DDOT":0},{"OBJECT_NAME":"STARLINK-5469","OBJECT_ID":"2023-021X","EPOCH":"2025-07-27T21:48:52.398720","MEAN_MOTION":14.98319687,"ECCENTRICITY":0.000267,"INCLINATION":70.0001,"RA_OF_ASC_NODE":31.1166,"ARG_OF_PERICENTER":272.8915,"MEAN_ANOMALY":87.1938,"EPHEMERIS_TYPE":0,"CLASSIFICATION_TYPE":"U","NORAD_CAT_ID":55649,"ELEMENT_SET_NO":999,"REV_AT_EPOCH":13512,"BSTAR":-0.00014043,"MEAN_MOTION_DOT":-1.768e-5,"MEAN_MOTION_DDOT":0},{"OBJECT_NAME":"STARLINK-5494","OBJECT_ID":"2023-021Y","EPOCH":"2025-07-27T22:06:52.094592","MEAN_MOTION":14.9832867,"ECCENTRICITY":0.0002048,"INCLINATION":70.0001,"RA_OF_ASC_NODE":31.1611,"ARG_OF_PERICENTER":271.1274,"MEAN_ANOMALY":88.9651,"EPHEMERIS_TYPE":0,"CLASSIFICATION_TYPE":"U","NORAD_CAT_ID":55650,"ELEMENT_SET_NO":999,"REV_AT_EPOCH":13512,"BSTAR":-7.8583e-6,"MEAN_MOTION_DOT":-1.87e-6,"MEAN_MOTION_DDOT":0},{"OBJECT_NAME":"STARLINK-5506","OBJECT_ID":"2023-021Z","EPOCH":"2025-07-27T20:54:45.042624","MEAN_MOTION":14.98346752,"ECCENTRICITY":0.0002766,"INCLINATION":70.0002,"RA_OF_ASC_NODE":31.389,"ARG_OF_PERICENTER":270.6189,"MEAN_ANOMALY":89.4653,"EPHEMERIS_TYPE":0,"CLASSIFICATION_TYPE":"U","NORAD_CAT_ID":55651,"ELEMENT_SET_NO":999,"REV_AT_EPOCH":13511,"BSTAR":0.0001799,"MEAN_MOTION_DOT":2.055e-5,"MEAN_MOTION_DDOT":0},{"OBJECT_NAME":"STARLINK-5487","OBJECT_ID":"2023-021AA","EPOCH":"2025-07-27T21:54:50.603616","MEAN_MOTION":14.98331373,"ECCENTRICITY":0.0002845,"INCLINATION":70.0001,"RA_OF_ASC_NODE":31.1312,"ARG_OF_PERICENTER":267.4419,"MEAN_ANOMALY":92.6414,"EPHEMERIS_TYPE":0,"CLASSIFICATION_TYPE":"U","NORAD_CAT_ID":55652,"ELEMENT_SET_NO":999,"REV_AT_EPOCH":13512,"BSTAR":2.4139e-6,"MEAN_MOTION_DOT":-6.4e-7,"MEAN_MOTION_DDOT":0},{"OBJECT_NAME":"STARLINK-5067","OBJECT_ID":"2023-021AB","EPOCH":"2025-07-27T21:30:47.899008","MEAN_MOTION":14.98331676,"ECCENTRICITY":0.0002263,"INCLINATION":70,"RA_OF_ASC_NODE":31.0752,"ARG_OF_PERICENTER":269.6789,"MEAN_ANOMALY":90.4111,"EPHEMERIS_TYPE":0,"CLASSIFICATION_TYPE":"U","NORAD_CAT_ID":55653,"ELEMENT_SET_NO":999,"REV_AT_EPOCH":13512,"BSTAR":-2.1648e-7,"MEAN_MOTION_DOT":-9.5e-7,"MEAN_MOTION_DDOT":0},{"OBJECT_NAME":"STARLINK-5070","OBJECT_ID":"2023-021AC","EPOCH":"2025-07-27T21:12:48.127968","MEAN_MOTION":14.9833326,"ECCENTRICITY":0.0002926,"INCLINATION":70,"RA_OF_ASC_NODE":31.4325,"ARG_OF_PERICENTER":267.6275,"MEAN_ANOMALY":92.4549,"EPHEMERIS_TYPE":0,"CLASSIFICATION_TYPE":"U","NORAD_CAT_ID":55654,"ELEMENT_SET_NO":999,"REV_AT_EPOCH":13511,"BSTAR":1.241e-5,"MEAN_MOTION_DOT":5.5e-7,"MEAN_MOTION_DDOT":0},{"OBJECT_NAME":"STARLINK-5267","OBJECT_ID":"2023-021AD","EPOCH":"2025-07-27T20:30:24.435072","MEAN_MOTION":14.98330608,"ECCENTRICITY":0.0002977,"INCLINATION":70.0006,"RA_OF_ASC_NODE":11.455,"ARG_OF_PERICENTER":267.5666,"MEAN_ANOMALY":92.5152,"EPHEMERIS_TYPE":0,"CLASSIFICATION_TYPE":"U","NORAD_CAT_ID":55655,"ELEMENT_SET_NO":999,"REV_AT_EPOCH":13559,"BSTAR":4.0365e-5,"MEAN_MOTION_DOT":3.89e-6,"MEAN_MOTION_DDOT":0},{"OBJECT_NAME":"STARLINK-5326","OBJECT_ID":"2023-021AE","EPOCH":"2025-07-27T21:24:47.212704","MEAN_MOTION":14.98329976,"ECCENTRICITY":0.0002963,"INCLINATION":69.9999,"RA_OF_ASC_NODE":31.0577,"ARG_OF_PERICENTER":268.6984,"MEAN_ANOMALY":91.3836,"EPHEMERIS_TYPE":0,"CLASSIFICATION_TYPE":"U","NORAD_CAT_ID":55656,"ELEMENT_SET_NO":999,"REV_AT_EPOCH":13512,"BSTAR":-2.5008e-6,"MEAN_MOTION_DOT":-1.23e-6,"MEAN_MOTION_DDOT":0},{"OBJECT_NAME":"STARLINK-5328","OBJECT_ID":"2023-021AF","EPOCH":"2025-07-27T20:42:25.573536","MEAN_MOTION":14.98332181,"ECCENTRICITY":0.0003084,"INCLINATION":70.0007,"RA_OF_ASC_NODE":11.4843,"ARG_OF_PERICENTER":268.6122,"MEAN_ANOMALY":91.4684,"EPHEMERIS_TYPE":0,"CLASSIFICATION_TYPE":"U","NORAD_CAT_ID":55657,"ELEMENT_SET_NO":999,"REV_AT_EPOCH":13560,"BSTAR":4.0798e-5,"MEAN_MOTION_DOT":3.94e-6,"MEAN_MOTION_DDOT":0},{"OBJECT_NAME":"STARLINK-5307","OBJECT_ID":"2023-021AG","EPOCH":"2025-07-27T21:42:49.251744","MEAN_MOTION":14.98331386,"ECCENTRICITY":0.0002748,"INCLINATION":70,"RA_OF_ASC_NODE":31.1008,"ARG_OF_PERICENTER":266.6584,"MEAN_ANOMALY":93.4261,"EPHEMERIS_TYPE":0,"CLASSIFICATION_TYPE":"U","NORAD_CAT_ID":55658,"ELEMENT_SET_NO":999,"REV_AT_EPOCH":13512,"BSTAR":5.7732e-6,"MEAN_MOTION_DOT":-2.4e-7,"MEAN_MOTION_DDOT":0},{"OBJECT_NAME":"STARLINK-5477","OBJECT_ID":"2023-021AH","EPOCH":"2025-07-27T20:36:25.081632","MEAN_MOTION":14.98330758,"ECCENTRICITY":0.0003006,"INCLINATION":70.0006,"RA_OF_ASC_NODE":11.4709,"ARG_OF_PERICENTER":268.2317,"MEAN_ANOMALY":91.8498,"EPHEMERIS_TYPE":0,"CLASSIFICATION_TYPE":"U","NORAD_CAT_ID":55659,"ELEMENT_SET_NO":999,"REV_AT_EPOCH":13559,"BSTAR":1.825e-5,"MEAN_MOTION_DOT":1.25e-6,"MEAN_MOTION_DDOT":0}]
